SHIYAN-1 (SY-1)         
1 28220U 04012A   26068.73650539  .00016393  00000+0  54854-3 0  9991
2 28220  97.8764 140.5238 0005873  23.6952 336.4557 15.31043463195862
STARLINK-30839          
1 58209U 23170D   26068.40714966 -.00001095  00000+0 -31104-4 0  9995
2 58209  43.0028 195.1906 0003394 147.1104 212.9959 15.26735182130260
